GPS BIIR-13 (PRN 02)    
1 28474U 04045A   26085.30519351 -.00000073  00000+0  00000+0 0  9995
2 28474  55.1822 328.2360 0170517 313.6726 241.0281  2.00574367156760
